STARLINK-38078          
1 69744U 26150F   26192.16668980 -.00075007  00000+0 -39359-3 0  9990
2 69744  97.2846  30.3080 0001183  89.0257 337.3270 15.80850851  2655
STARLINK-38047          
1 69745U 26150G   26192.16668980 -.00039615  00000+0 -20684-3 0  9997
2 69745  97.2845  30.3104 0001509  68.0136   2.8142 15.80833867  2657
STARLINK-38046          
1 69746U 26150H   26192.16668980 -.00086821  00000+0 -45624-3 0  9990
2 69746  97.2847  30.3152 0001405 102.1982 339.6319 15.80853616  2658
STARLINK-38067          
1 69747U 26150J   26192.16668980 -.01797684  00000+0 -12918-1 0  9996
2 69747  97.2850  30.3151 0001310  86.4182 353.4068 15.76560590  2659
STARLINK-37988          
1 69748U 26150K   26192.16668980 -.01995979  00000+0 -13608-1 0  9991
2 69748  97.2842  30.3163 0001778  79.5954   7.5758 15.78081887  2654
STARLINK-37987          
1 69749U 26150L   26192.16668980 -.00839532  00000+0 -47544-2 0  9990
2 69749  97.2846  30.3206 0001650  84.1915  11.2742 15.81113689  2650
STARLINK-38037          
1 69750U 26150M   26192.16668980 -.00078653  00000+0 -41275-3 0  9997
2 69750  97.2841  30.3264 0001239 104.3144   3.5105 15.80860056  2656
STARLINK-38049          
1 69751U 26150N   26192.16668980 -.00097268  00000+0 -51150-3 0  9994
2 69751  97.2841  30.3292 0001316  98.1492  15.4629 15.80868673  2656
STARLINK-38029          
1 69752U 26150P   26192.16668980 -.00104632  00000+0 -55052-3 0  9994
2 69752  97.2839  30.3430 0001185  98.2758  48.0336 15.80877543  2651
STARLINK-37965          
1 69753U 26150Q   26192.16668980 -.00077867  00000+0 -40871-3 0  9997
2 69753  97.2838  30.3427 0001202 102.7367  44.5212 15.80853645  2655
STARLINK-38048          
1 69754U 26150R   26192.16668980 -.00112689  00000+0 -59370-3 0  9994
2 69754  97.2838  30.3438 0001106  93.5807  54.8446 15.80871058  2658
STARLINK-38006          
1 69755U 26150S   26192.16668980 -.00127197  00000+0 -67252-3 0  9993
2 69755  97.2842  30.3512 0001080  75.9277  88.1791 15.80832729  2658
STARLINK-38036          
1 69756U 26150T   26192.16668980 -.00090086  00000+0 -47344-3 0  9990
2 69756  97.2843  30.3546 0001191 102.1858  69.5264 15.80862056  2652
STARLINK-38058          
1 69757U 26150U   26192.16668980 -.00077690  00000+0 -40780-3 0  9994
2 69757  97.2843  30.3550 0001032  97.2626  75.8941 15.80852164  2650
STARLINK-38066          
1 69758U 26150V   26192.16668980 -.00061488  00000+0 -32224-3 0  9997
2 69758  97.2844  30.3556 0001438  93.4476  80.5767 15.80835174  2650
STARLINK-38035          
1 69759U 26150W   26192.16668980 -.00137926  00000+0 -73021-3 0  9999
2 69759  97.2844  30.3564 0001139  81.1253  93.5562 15.80832312  2653
STARLINK-38056          
1 69760U 26150X   26192.16668980 -.00079444  00000+0 -41702-3 0  9992
2 69760  97.2844  30.3641 0001374  99.8667  94.5118 15.80855756  2652
STARLINK-38069          
1 69761U 26150Y   26192.16668980 -.00101738  00000+0 -53532-3 0  9999
2 69761  97.2846  30.3732 0001470  85.6710 128.3691 15.80867915  2657
STARLINK-38019          
1 69762U 26150Z   26192.16668980 -.01970918  00000+0 -12091-1 0  9998
2 69762  97.2843  30.3725 0001823  96.6018 118.8172 15.80351745  2659
KUIPER-00258            
1 69763U 26151A   26192.16668980 -.00025398  00000+0 -71645-3 0  9994
2 69763  51.8671 199.9810 0012045 156.5920 204.7243 15.35418419  1765
KUIPER-00526            
1 69764U 26151B   26192.16668980 -.00024988  00000+0 -66467-3 0  9995
2 69764  51.8765 199.8687 0006205 127.2206 289.0362 15.37284548  1522
KUIPER-00558            
1 69765U 26151C   26192.16668980 -.00025011  00000+0 -67610-3 0  9995
2 69765  51.8756 199.8998 0007794 138.1812 263.0891 15.36775314  2004
KUIPER-00569            
1 69766U 26151D   26192.16668980 -.00025448  00000+0 -67398-3 0  9993
2 69766  51.8788 199.8540 0005251 125.2977 297.0543 15.37435633  1309
KUIPER-00589            
1 69767U 26151E   26192.16668980 -.00024655  00000+0 -65373-3 0  9994
2 69767  51.8755 199.8633 0005531 130.6661 288.6440 15.37380030  2031
KUIPER-00598            
1 69768U 26151F   26192.16668980 -.00026878  00000+0 -75842-3 0  9996
2 69768  51.8636 199.9697 0010023 153.3729 212.7500 15.35467434  1946
KUIPER-00604            
1 69769U 26151G   26192.16668980 -.00025667  00000+0 -66341-3 0  9996
2 69769  51.8800 199.8033 0002793  95.9761 349.7241 15.38199351  2357
KUIPER-00609            
1 69770U 26151H   26192.16668980 -.00023997  00000+0 -61146-3 0  9990
2 69770  51.8803 199.7747 0001026  44.1139  55.1956 15.38599379  1305
KUIPER-00611            
1 69771U 26151J   26192.16668980 -.00025389  00000+0 -65163-3 0  9991
2 69771  51.8806 199.7848 0001689  93.6085 358.8996 15.38411006  1302
KUIPER-00612            
1 69772U 26151K   26192.16668980 -.00025617  00000+0 -66848-3 0  9997
2 69772  51.8793 199.8248 0003803 103.9522 332.2871 15.37901170  1307
KUIPER-00614            
1 69773U 26151L   26192.16668980 -.00024945  00000+0 -64619-3 0  9995
2 69773  51.8804 199.8073 0002813 111.1471 331.8115 15.38114521  1933
