OBJECT_NAME,OBJECT_ID,EPOCH,MEAN_MOTION,ECCENTRICITY,INCLINATION,RA_OF_ASC_NODE,ARG_OF_PERICENTER,MEAN_ANOMALY,EPHEMERIS_TYPE,CLASSIFICATION_TYPE,NORAD_CAT_ID,ELEMENT_SET_NO,REV_AT_EPOCH,BSTAR,MEAN_MOTION_DOT,MEAN_MOTION_DDOT
STARLINK-38078,2026-150F,2026-07-11T04:00:01.998720,15.80850851,.0001183,97.2846,30.3080,89.0257,337.3270,0,U,69744,999,265,-.39359E-3,-.75007E-3,0
STARLINK-38047,2026-150G,2026-07-11T04:00:01.998720,15.80833867,.0001509,97.2845,30.3104,68.0136,2.8142,0,U,69745,999,265,-.20684E-3,-.39615E-3,0
STARLINK-38046,2026-150H,2026-07-11T04:00:01.998720,15.80853616,.0001405,97.2847,30.3152,102.1982,339.6319,0,U,69746,999,265,-.45624E-3,-.86821E-3,0
STARLINK-38067,2026-150J,2026-07-11T04:00:01.998720,15.76560590,.000131,97.2850,30.3151,86.4182,353.4068,0,U,69747,999,265,-.12918E-1,-.1797684E-1,0
STARLINK-37988,2026-150K,2026-07-11T04:00:01.998720,15.78081887,.0001778,97.2842,30.3163,79.5954,7.5758,0,U,69748,999,265,-.13608E-1,-.1995979E-1,0
STARLINK-37987,2026-150L,2026-07-11T04:00:01.998720,15.81113689,.000165,97.2846,30.3206,84.1915,11.2742,0,U,69749,999,265,-.47544E-2,-.839532E-2,0
STARLINK-38037,2026-150M,2026-07-11T04:00:01.998720,15.80860056,.0001239,97.2841,30.3264,104.3144,3.5105,0,U,69750,999,265,-.41275E-3,-.78653E-3,0
STARLINK-38049,2026-150N,2026-07-11T04:00:01.998720,15.80868673,.0001316,97.2841,30.3292,98.1492,15.4629,0,U,69751,999,265,-.5115E-3,-.97268E-3,0
STARLINK-38029,2026-150P,2026-07-11T04:00:01.998720,15.80877543,.0001185,97.2839,30.3430,98.2758,48.0336,0,U,69752,999,265,-.55052E-3,-.104632E-2,0
STARLINK-37965,2026-150Q,2026-07-11T04:00:01.998720,15.80853645,.0001202,97.2838,30.3427,102.7367,44.5212,0,U,69753,999,265,-.40871E-3,-.77867E-3,0
STARLINK-38048,2026-150R,2026-07-11T04:00:01.998720,15.80871058,.0001106,97.2838,30.3438,93.5807,54.8446,0,U,69754,999,265,-.5937E-3,-.112689E-2,0
STARLINK-38006,2026-150S,2026-07-11T04:00:01.998720,15.80832729,.000108,97.2842,30.3512,75.9277,88.1791,0,U,69755,999,265,-.67252E-3,-.127197E-2,0
STARLINK-38036,2026-150T,2026-07-11T04:00:01.998720,15.80862056,.0001191,97.2843,30.3546,102.1858,69.5264,0,U,69756,999,265,-.47344E-3,-.90086E-3,0
STARLINK-38058,2026-150U,2026-07-11T04:00:01.998720,15.80852164,.0001032,97.2843,30.3550,97.2626,75.8941,0,U,69757,999,265,-.4078E-3,-.7769E-3,0
STARLINK-38066,2026-150V,2026-07-11T04:00:01.998720,15.80835174,.0001438,97.2844,30.3556,93.4476,80.5767,0,U,69758,999,265,-.32224E-3,-.61488E-3,0
STARLINK-38035,2026-150W,2026-07-11T04:00:01.998720,15.80832312,.0001139,97.2844,30.3564,81.1253,93.5562,0,U,69759,999,265,-.73021E-3,-.137926E-2,0
STARLINK-38056,2026-150X,2026-07-11T04:00:01.998720,15.80855756,.0001374,97.2844,30.3641,99.8667,94.5118,0,U,69760,999,265,-.41702E-3,-.79444E-3,0
STARLINK-38069,2026-150Y,2026-07-11T04:00:01.998720,15.80867915,.000147,97.2846,30.3732,85.6710,128.3691,0,U,69761,999,265,-.53532E-3,-.101738E-2,0
STARLINK-38019,2026-150Z,2026-07-11T04:00:01.998720,15.80351745,.0001823,97.2843,30.3725,96.6018,118.8172,0,U,69762,999,265,-.12091E-1,-.1970918E-1,0
KUIPER-00258,2026-151A,2026-07-11T04:00:01.998720,15.35418419,.0012045,51.8671,199.9810,156.5920,204.7243,0,U,69763,999,176,-.71645E-3,-.25398E-3,0
KUIPER-00526,2026-151B,2026-07-11T04:00:01.998720,15.37284548,.0006205,51.8765,199.8687,127.2206,289.0362,0,U,69764,999,152,-.66467E-3,-.24988E-3,0
KUIPER-00558,2026-151C,2026-07-11T04:00:01.998720,15.36775314,.0007794,51.8756,199.8998,138.1812,263.0891,0,U,69765,999,200,-.6761E-3,-.25011E-3,0
KUIPER-00569,2026-151D,2026-07-11T04:00:01.998720,15.37435633,.0005251,51.8788,199.8540,125.2977,297.0543,0,U,69766,999,130,-.67398E-3,-.25448E-3,0
KUIPER-00589,2026-151E,2026-07-11T04:00:01.998720,15.37380030,.0005531,51.8755,199.8633,130.6661,288.6440,0,U,69767,999,203,-.65373E-3,-.24655E-3,0
KUIPER-00598,2026-151F,2026-07-11T04:00:01.998720,15.35467434,.0010023,51.8636,199.9697,153.3729,212.7500,0,U,69768,999,194,-.75842E-3,-.26878E-3,0
KUIPER-00604,2026-151G,2026-07-11T04:00:01.998720,15.38199351,.0002793,51.8800,199.8033,95.9761,349.7241,0,U,69769,999,235,-.66341E-3,-.25667E-3,0
KUIPER-00609,2026-151H,2026-07-11T04:00:01.998720,15.38599379,.0001026,51.8803,199.7747,44.1139,55.1956,0,U,69770,999,130,-.61146E-3,-.23997E-3,0
KUIPER-00611,2026-151J,2026-07-11T04:00:01.998720,15.38411006,.0001689,51.8806,199.7848,93.6085,358.8996,0,U,69771,999,130,-.65163E-3,-.25389E-3,0
KUIPER-00612,2026-151K,2026-07-11T04:00:01.998720,15.37901170,.0003803,51.8793,199.8248,103.9522,332.2871,0,U,69772,999,130,-.66848E-3,-.25617E-3,0
KUIPER-00614,2026-151L,2026-07-11T04:00:01.998720,15.38114521,.0002813,51.8804,199.8073,111.1471,331.8115,0,U,69773,999,193,-.64619E-3,-.24945E-3,0
